     3.05           N: GNSS NAV DATA    R: GLONASS          RINEX VERSION / TYPE
JPS2RIN v.2.1.237   JAVAD GNSS          20260605 101053 UTC PGM / RUN BY / DATE
    18                                                      LEAP SECONDS
GLUT -8.8475644588D-09 0.000000000D+00      0    0          TIME SYSTEM CORR
GLGP -3.4458935261D-08 0.000000000D+00      0    0          TIME SYSTEM CORR
                                                            END OF HEADER
R16 2026 06 05 07 45 00 5.019176751375D-05 0.000000000000D+00 4.590300000000D+05
     2.004842041016D+04-1.880537033081D+00-9.313225746155D-10 0.000000000000D+00
     7.599418945313D+03-2.373380661011D-01-9.313225746155D-10-1.000000000000D+00
    -1.377066210938D+04-2.869037628174D+00 9.313225746155D-10 0.000000000000D+00
R03 2026 06 05 08 15 00 1.439638435841D-05 9.094947017729D-13 4.608300000000D+05
    -5.822077148438D+03-1.711070060730D+00 0.000000000000D+00 0.000000000000D+00
     1.006339648438D+04-2.590831756592D+00 2.793967723846D-09 5.000000000000D+00
     2.275850878906D+04 7.042331695557D-01 0.000000000000D+00 0.000000000000D+00
R04 2026 06 05 08 15 00 3.593377768993D-04 2.728484105319D-12 4.608300000000D+05
     6.407279785156D+03-8.515272140503D-01-9.313225746155D-10 0.000000000000D+00
     2.076880419922D+04-1.630392074585D+00 3.725290298462D-09 6.000000000000D+00
     1.339152490234D+04 2.941097259521D+00 9.313225746155D-10 0.000000000000D+00
R05 2026 06 05 08 15 00 1.691086217761D-04 9.094947017729D-13 4.608300000000D+05
     1.497194140625D+04 4.082374572754D-01-9.313225746155D-10 0.000000000000D+00
     2.045673681641D+04 2.108116149902D-01 1.862645149231D-09 1.000000000000D+00
    -2.908605468750D+03 3.570190429688D+00 1.862645149231D-09 0.000000000000D+00
R06 2026 06 05 08 15 00-1.927372068167D-05 0.000000000000D+00 4.618800000000D+05
     1.604938574219D+04 1.472096443176D+00 0.000000000000D+00 0.000000000000D+00
     8.938608886719D+03 1.931833267212D+00-9.313225746155D-10-4.000000000000D+00
    -1.770151953125D+04 2.307703018188D+00 9.313225746155D-10 0.000000000000D+00
R17 2026 06 05 08 15 00 3.019170835614D-04 2.728484105319D-12 4.608300000000D+05
    -1.366589550781D+04 6.094236373901D-01 0.000000000000D+00 0.000000000000D+00
     2.015341894531D+04-8.503160476685D-01 1.862645149231D-09 4.000000000000D+00
    -7.515080078125D+03-3.392181396484D+00 1.862645149231D-09 0.000000000000D+00
R18 2026 06 05 08 15 00 2.647256478667D-04 1.818989403546D-12 4.608300000000D+05
    -7.168907226563D+03-3.539857864380D-01 0.000000000000D+00 0.000000000000D+00
     2.295120410156D+04 1.136675834656D+00 2.793967723846D-09-3.000000000000D+00
     8.586984863281D+03-3.333107948303D+00 9.313225746155D-10 0.000000000000D+00
R19 2026 06 05 08 15 00 5.033984780312D-05 1.818989403546D-12 4.608300000000D+05
     4.583288574219D+03-1.294089317322D+00 0.000000000000D+00 0.000000000000D+00
     1.335751806641D+04 2.605330467224D+00 2.793967723846D-09 3.000000000000D+00
     2.121865332031D+04-1.365270614624D+00 0.000000000000D+00 0.000000000000D+00
R20 2026 06 05 08 15 00 2.332981675863D-04 9.094947017729D-13 4.623600000000D+05
     1.359608154297D+04-1.410552978516D+00 0.000000000000D+00 0.000000000000D+00
    -4.248500976563D+03 2.529419898987D+00 9.313225746155D-10 2.000000000000D+00
     2.116652441406D+04 1.418042182922D+00-1.862645149231D-09 0.000000000000D+00
R03 2026 06 05 08 45 00 1.439917832613D-05 9.094947017729D-13 4.626300000000D+05
    -9.291832031250D+03-2.114006996155D+00 0.000000000000D+00 0.000000000000D+00
     5.582791992188D+03-2.344971656799D+00 2.793967723846D-09 5.000000000000D+00
     2.313490869141D+04-2.888574600220D-01-9.313225746155D-10 0.000000000000D+00
R04 2026 06 05 08 45 00 3.593424335122D-04 2.728484105319D-12 4.626300000000D+05
     4.282453125000D+03-1.512097358704D+00 0.000000000000D+00 0.000000000000D+00
     1.749139648438D+04-1.963739395142D+00 3.725290298462D-09 6.000000000000D+00
     1.810093261719D+04 2.257758140564D+00 0.000000000000D+00 0.000000000000D+00
R05 2026 06 05 08 45 00 1.691095530987D-04 9.094947017729D-13 4.626300000000D+05
     1.523834423828D+04-1.455249786377D-01 0.000000000000D+00 0.000000000000D+00
     2.016017675781D+04-5.143089294434D-01 2.793967723846D-09 1.000000000000D+00
     3.547133789063D+03 3.556321144104D+00 1.862645149231D-09 0.000000000000D+00
R06 2026 06 05 08 45 00-1.927278935909D-05 9.094947017729D-13 4.626300000000D+05
     1.858765722656D+04 1.302281379700D+00 0.000000000000D+00 0.000000000000D+00
     1.177361230469D+04 1.209717750549D+00 0.000000000000D+00-4.000000000000D+00
    -1.291731396484D+04 2.973556518555D+00 9.313225746155D-10 0.000000000000D+00
R17 2026 06 05 08 45 00 3.019217401743D-04 2.728484105319D-12 4.626300000000D+05
    -1.243227392578D+04 7.179965972900D-01 0.000000000000D+00 0.000000000000D+00
     1.787180126953D+04-1.676648139954D+00 9.313225746155D-10 4.000000000000D+00
    -1.325050781250D+04-2.939048767090D+00 1.862645149231D-09 0.000000000000D+00
R18 2026 06 05 08 45 00 2.647293731570D-04 1.818989403546D-12 4.626300000000D+05
    -7.374103515625D+03 9.348773956299D-02 0.000000000000D+00 0.000000000000D+00
     2.433169580078D+04 3.698081970215D-01 2.793967723846D-09-3.000000000000D+00
     2.333615722656D+03-3.570085525513D+00 1.862645149231D-09 0.000000000000D+00
R19 2026 06 05 08 45 00 5.034357309341D-05 9.094947017729D-13 4.626300000000D+05
     2.736770019531D+03-7.585744857788D-01 0.000000000000D+00 0.000000000000D+00
     1.785807617188D+04 2.346309661865D+00 3.725290298462D-09 3.000000000000D+00
     1.797071923828D+04-2.220168113708D+00 0.000000000000D+00 0.000000000000D+00
R20 2026 06 05 08 45 00 2.333000302315D-04 9.094947017729D-13 4.626300000000D+05
     1.130390625000D+04-1.105993270874D+00 0.000000000000D+00 0.000000000000D+00
     6.978564453125D+02 2.925392150879D+00 1.862645149231D-09 2.000000000000D+00
     2.286862158203D+04 4.610347747803D-01-9.313225746155D-10 0.000000000000D+00
R03 2026 06 05 09 15 00 1.439265906811D-05 9.094947017729D-13 4.645500000000D+05
    -1.329891113281D+04-2.295435905457D+00 9.313225746155D-10 0.000000000000D+00
     1.753053222656D+03-1.880959510803D+00 1.862645149231D-09 5.000000000000D+00
     2.173134570313D+04-1.260786056519D+00-9.313225746155D-10 0.000000000000D+00
R04 2026 06 05 09 15 00 3.593470901251D-04 2.728484105319D-12 4.644300000000D+05
     9.886196289063D+02-2.131266593933D+00 0.000000000000D+00 0.000000000000D+00
     1.387303222656D+04-2.009193420410D+00 2.793967723846D-09 6.000000000000D+00
     2.141496679688D+04 1.400716781616D+00 0.000000000000D+00 0.000000000000D+00
R05 2026 06 05 09 15 00 1.691114157438D-04 9.094947017729D-13 4.644300000000D+05
     1.435366064453D+04-8.555917739868D-01 0.000000000000D+00 0.000000000000D+00
     1.872487304688D+04-1.041216850281D+00 2.793967723846D-09 1.000000000000D+00
     9.728946289063D+03 3.267824172974D+00 9.313225746155D-10 0.000000000000D+00
R06 2026 06 05 09 15 00-1.927185803652D-05 9.094947017729D-13 4.644300000000D+05
     2.057560888672D+04 8.640346527100D-01 0.000000000000D+00 0.000000000000D+00
     1.329797607422D+04 4.947137832642D-01 9.313225746155D-10-4.000000000000D+00
    -7.135001953125D+03 3.409533500671D+00 1.862645149231D-09 0.000000000000D+00
R17 2026 06 05 09 15 00 3.019273281097D-04 2.728484105319D-12 4.644300000000D+05
    -1.123086083984D+04 5.784816741943D-01 0.000000000000D+00 0.000000000000D+00
     1.418165625000D+04-2.396509170532D+00 0.000000000000D+00 4.000000000000D+00
    -1.795878271484D+04-2.258392333984D+00 1.862645149231D-09 0.000000000000D+00
R18 2026 06 05 09 15 00 2.647330984473D-04 1.818989403546D-12 4.644300000000D+05
    -6.966845703125D+03 3.182096481323D-01 0.000000000000D+00 0.000000000000D+00
     2.421533203125D+04-5.083627700806D-01 1.862645149231D-09-3.000000000000D+00
    -4.099702636719D+03-3.531741142273D+00 1.862645149231D-09 0.000000000000D+00
R19 2026 06 05 09 15 00 5.034543573856D-05 9.094947017729D-13 4.644300000000D+05
     1.816811035156D+03-2.819433212280D-01 0.000000000000D+00 0.000000000000D+00
     2.163717968750D+04 1.810356140137D+00 3.725290298462D-09 3.000000000000D+00
     1.332928369141D+04-2.903452873230D+00 9.313225746155D-10 0.000000000000D+00
R20 2026 06 05 09 15 00 2.333009615541D-04 9.094947017729D-13 4.644300000000D+05
     9.696222656250D+03-6.659622192383D-01 0.000000000000D+00 0.000000000000D+00
     6.116910644531D+03 3.046092987061D+00 2.793967723846D-09 2.000000000000D+00
     2.280525585938D+04-5.308809280396D-01 0.000000000000D+00 0.000000000000D+00
R28 2026 06 05 09 15 00-1.485915854573D-04 0.000000000000D+00 4.655700000000D+05
     9.230254394531D+03-7.222223281860D-01 0.000000000000D+00 1.000000000000D+00
     6.122003417969D+03 3.065795898438D+00 2.793967723846D-09 7.000000000000D+00
     2.298312548828D+04-5.235948562622D-01 0.000000000000D+00 0.000000000000D+00
R04 2026 06 05 09 45 00 3.593517467380D-04 2.728484105319D-12 4.662300000000D+05
    -3.298702148438D+03-2.598798751831D+00 9.313225746155D-10 0.000000000000D+00
     1.041808691406D+04-1.789772033691D+00 2.793967723846D-09 6.000000000000D+00
     2.307869189453D+04 4.359149932861D-01 0.000000000000D+00 0.000000000000D+00
R05 2026 06 05 09 45 00 1.691123470664D-04 9.094947017729D-13 4.662300000000D+05
     1.212603222656D+04-1.618852615356D+00 0.000000000000D+00 0.000000000000D+00
     1.656731591797D+04-1.310441017151D+00 3.725290298462D-09 1.000000000000D+00
     1.515956591797D+04 2.727087974548D+00 0.000000000000D+00 0.000000000000D+00
R06 2026 06 05 09 45 00-1.927092671394D-05 9.094947017729D-13 4.662300000000D+05
     2.156197412109D+04 2.001066207886D-01 0.000000000000D+00 0.000000000000D+00
     1.362445019531D+04-1.046400070190D-01 1.862645149231D-09-4.000000000000D+00
    -8.014746093750D+02 3.582060813904D+00 1.862645149231D-09 0.000000000000D+00
